GLOBALSTAR M035         
1 25851U 99037A   25166.93513382 -.00000046  00000+0  66389-3 0  9998
2 25851  51.9970  57.7571 0014032 342.2949  37.3551 11.04538379 96122
GLOBALSTAR M032         
1 25852U 99037B   25166.90289949 -.00000037  00000+0  94959-3 0  9999
2 25852  51.9940 243.1174 0012527 164.3977 195.7211 11.19061560134642
GLOBALSTAR M051         
1 25853U 99037C   25166.91702228 -.00000075  00000+0 -64769-4 0  9991
2 25853  51.9816  43.9554 0000351 133.8047 226.2793 11.42205085132241
GLOBALSTAR M030         
1 25854U 99037D   25166.52642510 -.00000085  00000+0 -20433-3 0  9996
2 25854  51.9854 211.1115 0002870  42.5383 317.5656 11.55108396149851
GLOBALSTAR M048         
1 25872U 99041A   25166.42910185 -.00000058  00000+0  31844-3 0  9993
2 25872  51.9392 340.0996 0013475 178.4897 193.7845 11.33857318124789
GLOBALSTAR M026         
1 25873U 99041B   25166.55257314 -.00000130  00000+0 -24447-2 0  9998
2 25873  51.9968 176.5889 0002437 268.9650 267.6647 11.06841078148301
GLOBALSTAR M043         
1 25874U 99041C   25166.74538963 -.00000051  00000+0  51460-3 0  9999
2 25874  51.9402  86.9340 0013699 311.7273  61.0879 11.25694329122717
GLOBALSTAR M028         
1 25875U 99041D   25166.47477120 -.00000104  00000+0 -21605-4 0  9996
2 25875  51.9597 198.1725 0063273  67.9150 292.8414 12.50583743189968
